{"fetched_at":"2026-03-30T06:02:59Z","count":15439,"tles":[{"name":"STARLINK-31508","line1":"1 59503U 24071V   26087.73447313  .00002888  00000+0  11436-3 0  9994","line2":"2 59503  43.0034 232.5896 0001986 290.7216  69.3423 15.27601178111114","category":"Starlink"}]}